{
  "type": "FeatureCollection",
  "features": [
    {
      "type": "Feature",
      "properties": {
        "norad_id": 67046,
        "name": "STARLINK-35721",
        "group": "last-30-days",
        "lat": 18.56132299159541,
        "lon": 128.57498925223427,
        "alt_km": 349.83302784236275,
        "timestamp": "2025-12-24T22:42:20.748725+00:00",
        "meta_object_name": "STARLINK-35721",
        "meta_object_id": "2025-294S",
        "meta_epoch": "2025-12-24T06:00:02.000160",
        "meta_mean_motion": 15.75167214,
        "meta_eccentricity": 0.00016003,
        "meta_inclination": 43.0002,
        "meta_ra_of_asc_node": 111.6687,
        "meta_arg_of_pericenter": 275.4039,
        "meta_mean_anomaly": 124.2836,
        "meta_ephemeris_type": 0,
        "meta_classification_type": "U",
        "meta_norad_cat_id": 67046,
        "meta_element_set_no": 999,
        "meta_rev_at_epoch": 215,
        "meta_bstar": -0.014125544,
        "meta_mean_motion_dot": -0.01898244,
        "meta_mean_motion_ddot": 0,
        "tle_line1": "1 67046U 25294S   25358.25002315 -.01898244  00000+0 -14126-1 0  9998",
        "tle_line2": "2 67046  43.0002 111.6687 0001600 275.4039 124.2836 15.75167214  2154"
      },
      "geometry": {
        "type": "Point",
        "coordinates": [
          128.57498925223427,
          18.56132299159541
        ]
      }
    },
    {
      "type": "Feature",
      "properties": {
        "norad_id": 67047,
        "name": "STARLINK-35779",
        "group": "last-30-days",
        "lat": 20.02240694908901,
        "lon": 130.46904386148967,
        "alt_km": 349.6192603844047,
        "timestamp": "2025-12-24T22:42:20.748735+00:00",
        "meta_object_name": "STARLINK-35779",
        "meta_object_id": "2025-294T",
        "meta_epoch": "2025-12-24T06:00:02.000160",
        "meta_mean_motion": 15.75139396,
        "meta_eccentricity": 0.0001438,
        "meta_inclination": 42.9998,
        "meta_ra_of_asc_node": 111.6628,
        "meta_arg_of_pericenter": 277.86,
        "meta_mean_anomaly": 124.2079,
        "meta_ephemeris_type": 0,
        "meta_classification_type": "U",
        "meta_norad_cat_id": 67047,
        "meta_element_set_no": 999,
        "meta_rev_at_epoch": 196,
        "meta_bstar": -0.014133659,
        "meta_mean_motion_dot": -0.01897015,
        "meta_mean_motion_ddot": 0,
        "tle_line1": "1 67047U 25294T   25358.25002315 -.01897015  00000+0 -14134-1 0  9993",
        "tle_line2": "2 67047  42.9998 111.6628 0001438 277.8600 124.2079 15.75139396  1968"
      },
      "geometry": {
        "type": "Point",
        "coordinates": [
          130.46904386148967,
          20.02240694908901
        ]
      }
    },
    {
      "type": "Feature",
      "properties": {
        "norad_id": 67048,
        "name": "STARLINK-35905",
        "group": "last-30-days",
        "lat": 21.243972369757497,
        "lon": 132.1003508116398,
        "alt_km": 349.59576866505904,
        "timestamp": "2025-12-24T22:42:20.748744+00:00",
        "meta_object_name": "STARLINK-35905",
        "meta_object_id": "2025-294U",
        "meta_epoch": "2025-12-24T06:00:02.000160",
        "meta_mean_motion": 15.75144824,
        "meta_eccentricity": 0.00013969,
        "meta_inclination": 43.0002,
        "meta_ra_of_asc_node": 111.6579,
        "meta_arg_of_pericenter": 273.3527,
        "meta_mean_anomaly": 130.6691,
        "meta_ephemeris_type": 0,
        "meta_classification_type": "U",
        "meta_norad_cat_id": 67048,
        "meta_element_set_no": 999,
        "meta_rev_at_epoch": 207,
        "meta_bstar": -0.014165912,
        "meta_mean_motion_dot": -0.01901118,
        "meta_mean_motion_ddot": 0,
        "tle_line1": "1 67048U 25294U   25358.25002315 -.01901118  00000+0 -14166-1 0  9999",
        "tle_line2": "2 67048  43.0002 111.6579 0001396 273.3527 130.6691 15.75144824  2070"
      },
      "geometry": {
        "type": "Point",
        "coordinates": [
          132.1003508116398,
          21.243972369757497
        ]
      }
    },
    {
      "type": "Feature",
      "properties": {
        "norad_id": 67049,
        "name": "STARLINK-35877",
        "group": "last-30-days",
        "lat": 22.631749110495317,
        "lon": 134.01447718077605,
        "alt_km": 349.42281903858293,
        "timestamp": "2025-12-24T22:42:20.748754+00:00",
        "meta_object_name": "STARLINK-35877",
        "meta_object_id": "2025-294V",
        "meta_epoch": "2025-12-24T06:00:02.000160",
        "meta_mean_motion": 15.75116332,
        "meta_eccentricity": 0.00015222,
        "meta_inclination": 43.0004,
        "meta_ra_of_asc_node": 111.6523,
        "meta_arg_of_pericenter": 275.7732,
        "meta_mean_anomaly": 130.5528,
        "meta_ephemeris_type": 0,
        "meta_classification_type": "U",
        "meta_norad_cat_id": 67049,
        "meta_element_set_no": 999,
        "meta_rev_at_epoch": 215,
        "meta_bstar": -0.014096707,
        "meta_mean_motion_dot": -0.01891122,
        "meta_mean_motion_ddot": 0,
        "tle_line1": "1 67049U 25294V   25358.25002315 -.01891122  00000+0 -14097-1 0  9996",
        "tle_line2": "2 67049  43.0004 111.6523 0001522 275.7732 130.5528 15.75116332  2157"
      },
      "geometry": {
        "type": "Point",
        "coordinates": [
          134.01447718077605,
          22.631749110495317
        ]
      }
    },
    {
      "type": "Feature",
      "properties": {
        "norad_id": 67050,
        "name": "STARLINK-36078",
        "group": "last-30-days",
        "lat": 23.998509733953064,
        "lon": 135.97066149744654,
        "alt_km": 349.383657079009,
        "timestamp": "2025-12-24T22:42:20.748764+00:00",
        "meta_object_name": "STARLINK-36078",
        "meta_object_id": "2025-294W",
        "meta_epoch": "2025-12-24T06:00:02.000160",
        "meta_mean_motion": 15.75106832,
        "meta_eccentricity": 0.00014148,
        "meta_inclination": 43.0003,
        "meta_ra_of_asc_node": 111.6463,
        "meta_arg_of_pericenter": 272.5779,
        "meta_mean_anomaly": 136.0543,
        "meta_ephemeris_type": 0,
        "meta_classification_type": "U",
        "meta_norad_cat_id": 67050,
        "meta_element_set_no": 999,
        "meta_rev_at_epoch": 207,
        "meta_bstar": -0.014186248,
        "meta_mean_motion_dot": -0.01900727,
        "meta_mean_motion_ddot": 0,
        "tle_line1": "1 67050U 25294W   25358.25002315 -.01900727  00000+0 -14186-1 0  9999",
        "tle_line2": "2 67050  43.0003 111.6463 0001414 272.5779 136.0543 15.75106832  2070"
      },
      "geometry": {
        "type": "Point",
        "coordinates": [
          135.97066149744654,
          23.998509733953064
        ]
      }
    },
    {
      "type": "Feature",
      "properties": {
        "norad_id": 67051,
        "name": "STARLINK-35706",
        "group": "last-30-days",
        "lat": 25.33343787627727,
        "lon": 137.958931952419,
        "alt_km": 349.2612231570356,
        "timestamp": "2025-12-24T22:42:20.748775+00:00",
        "meta_object_name": "STARLINK-35706",
        "meta_object_id": "2025-294X",
        "meta_epoch": "2025-12-24T06:00:02.000160",
        "meta_mean_motion": 15.75085857,
        "meta_eccentricity": 0.00014586,
        "meta_inclination": 43.0003,
        "meta_ra_of_asc_node": 111.6404,
        "meta_arg_of_pericenter": 273.976,
        "meta_mean_anomaly": 136.961,
        "meta_ephemeris_type": 0,
        "meta_classification_type": "U",
        "meta_norad_cat_id": 67051,
        "meta_element_set_no": 999,
        "meta_rev_at_epoch": 215,
        "meta_bstar": -0.014215273,
        "meta_mean_motion_dot": -0.01902601,
        "meta_mean_motion_ddot": 0,
        "tle_line1": "1 67051U 25294X   25358.25002315 -.01902601  00000+0 -14215-1 0  9996",
        "tle_line2": "2 67051  43.0003 111.6404 0001458 273.9760 136.9610 15.75085857  2155"
      },
      "geometry": {
        "type": "Point",
        "coordinates": [
          137.958931952419,
          25.33343787627727
        ]
      }
    },
    {
      "type": "Feature",
      "properties": {
        "norad_id": 67052,
        "name": "STARLINK-35720",
        "group": "last-30-days",
        "lat": 26.487044013588125,
        "lon": 139.74744132202662,
        "alt_km": 349.1127043794013,
        "timestamp": "2025-12-24T22:42:20.748785+00:00",
        "meta_object_name": "STARLINK-35720",
        "meta_object_id": "2025-294Y",
        "meta_epoch": "2025-12-24T06:00:02.000160",
        "meta_mean_motion": 15.75085991,
        "meta_eccentricity": 0.00015082,
        "meta_inclination": 43.0003,
        "meta_ra_of_asc_node": 111.6355,
        "meta_arg_of_pericenter": 274.4099,
        "meta_mean_anomaly": 138.5033,
        "meta_ephemeris_type": 0,
        "meta_classification_type": "U",
        "meta_norad_cat_id": 67052,
        "meta_element_set_no": 999,
        "meta_rev_at_epoch": 214,
        "meta_bstar": -0.014196988,
        "meta_mean_motion_dot": -0.01900539,
        "meta_mean_motion_ddot": 0,
        "tle_line1": "1 67052U 25294Y   25358.25002315 -.01900539  00000+0 -14197-1 0  9994",
        "tle_line2": "2 67052  43.0003 111.6355 0001508 274.4099 138.5033 15.75085991  2143"
      },
      "geometry": {
        "type": "Point",
        "coordinates": [
          139.74744132202662,
          26.487044013588125
        ]
      }
    }
  ]
}